0 THORAD AGENA D DEB
1 04218U 69082CH  13281.81301420  .00000934  00000-0  29176-3 0  4960
2 04218 070.1028 183.4306 0038629 121.5938 295.9821 14.43288653287992
0 THORAD AGENA D DEB
1 04218U 69082CH  13283.82406992  .00000933  00000-0  29148-3 0  4972
2 04218 070.1026 178.8069 0038576 118.5485 305.2951 14.43296585288283
0 THORAD AGENA D DEB
1 04218U 69082CH  13285.83502737  .00000993  00000-0  30929-3 0  4985
2 04218 070.1023 174.1834 0038567 115.4662 314.1821 14.43299529288570
0 THORAD AGENA D DEB
1 04218U 69082CH  13288.06164366  .00001700  00000-0  51693-3 0  4994
2 04218 070.1018 169.0640 0038544 112.1300 003.5860 14.43307651288893
0 THORAD AGENA D DEB
1 04218U 69082CH  13290.20998568  .00001390  00000-0  42577-3 0  5001
2 04218 070.1014 164.1244 0038538 108.8305 006.4207 14.43314543289206
0 THORAD AGENA D DEB
1 04218U 69082CH  13292.76494052  .00001488  00000-0  45429-3 0  5011
2 04218 070.1013 158.2498 0038563 104.8709 322.1336 14.43321341289577
0 THORAD AGENA D DEB
1 04218U 69082CH  13294.84807557  .00001666  00000-0  50661-3 0  5023
2 04218 070.1015 153.4601 0038622 101.6431 346.2902 14.43328466289879
